start=new Date('2022-03-23T00:00:00.000Z').valueOf();
sats=[{"REV_AT_EPOCH":"364","REF_FRAME":"TEME","ARG_OF_PERICENTER":"275.6922","MEAN_MOTION_DOT":"-0.00240717","OBJECT_ID":"2021-115AG","DECAY_DATE":null,"GP_ID":"199431005","SITE":"AFETR","COUNTRY_CODE":"US","EPHEMERIS_TYPE":"0","MEAN_ELEMENT_THEORY":"SGP4","OBJECT_TYPE":"PAYLOAD","TLE_LINE1":"1 49754U 21115AG  22081.91668981 -.00240717  00000-0 -94864-2 0  9996","CLASSIFICATION_TYPE":"U","MEAN_MOTION_DDOT":"0.0000000000000","MEAN_ANOMALY":"6.6651","APOAPSIS":"491.511","PERIOD":"94.356","ELEMENT_SET_NO":"999","INCLINATION":"53.2175","SEMIMAJOR_AXIS":"6865.532","ECCENTRICITY":"0.00059930","OBJECT_NAME":"STARLINK-3193","MEAN_MOTION":"15.26129932","FILE":"3370190","RA_OF_ASC_NODE":"160.5990","TLE_LINE2":"2 49754  53.2175 160.5990 0005993 275.6922   6.6651 15.26129932  3640","CENTER_NAME":"EARTH","EPOCH":"2022-03-22T22:00:01.999584","PERIAPSIS":"483.282","BSTAR":"-0.00948640000000","LAUNCH_DATE":"2021-12-02","NORAD_CAT_ID":"49754","RCS_SIZE":"LARGE","TIME_SYSTEM":"UTC"},{"TIME_SYSTEM":"UTC","RCS_SIZE":"LARGE","NORAD_CAT_ID":"49755","BSTAR":"-0.00173730000000","LAUNCH_DATE":"2021-12-02","PERIAPSIS":"538.345","CENTER_NAME":"EARTH","EPOCH":"2022-03-22T22:00:01.999584","RA_OF_ASC_NODE":"168.4107","TLE_LINE2":"2 49755  53.2165 168.4107 0002010  31.9958 304.3394 15.08843209  3604","MEAN_MOTION":"15.08843209","FILE":"3370190","OBJECT_NAME":"STARLINK-3210","ECCENTRICITY":"0.00020100","ELEMENT_SET_NO":"999","INCLINATION":"53.2165","SEMIMAJOR_AXIS":"6917.871","PERIOD":"95.437","APOAPSIS":"541.126","TLE_LINE1":"1 49755U 21115AH  22081.91668981 -.00027834  00000-0 -17373-2 0  9990","CLASSIFICATION_TYPE":"U","MEAN_ANOMALY":"304.3394","MEAN_MOTION_DDOT":"0.0000000000000","OBJECT_TYPE":"PAYLOAD","MEAN_ELEMENT_THEORY":"SGP4","EPHEMERIS_TYPE":"0","COUNTRY_CODE":"US","SITE":"AFETR","GP_ID":"199430755","DECAY_DATE":null,"MEAN_MOTION_DOT":"-0.00027834","ARG_OF_PERICENTER":"31.9958","OBJECT_ID":"2021-115AH","REF_FRAME":"TEME","REV_AT_EPOCH":"360"},{"APOAPSIS":"483.410","TLE_LINE1":"1 49756U 21115AJ  22081.91668981 -.00659840  00000-0 -25871-1 0  9990","CLASSIFICATION_TYPE":"U","MEAN_MOTION_DDOT":"0.0000000000000","MEAN_ANOMALY":"41.5313","OBJECT_TYPE":"PAYLOAD","MEAN_ELEMENT_THEORY":"SGP4","EPHEMERIS_TYPE":"0","COUNTRY_CODE":"US","SITE":"AFETR","GP_ID":"199430007","DECAY_DATE":null,"ARG_OF_PERICENTER":"68.9523","MEAN_MOTION_DOT":"-0.00659840","OBJECT_ID":"2021-115AJ","REV_AT_EPOCH":"365","REF_FRAME":"TEME","RCS_SIZE":"LARGE","TIME_SYSTEM":"UTC","NORAD_CAT_ID":"49756","BSTAR":"-0.02587100000000","LAUNCH_DATE":"2021-12-02","PERIAPSIS":"481.647","CENTER_NAME":"EARTH","EPOCH":"2022-03-22T22:00:01.999584","RA_OF_ASC_NODE":"159.4536","TLE_LINE2":"2 49756  53.2174 159.4536 0001285  68.9523  41.5313 15.27754490  3652","MEAN_MOTION":"15.27754490","FILE":"3370190","OBJECT_NAME":"STARLINK-3207","ECCENTRICITY":"0.00012850","INCLINATION":"53.2174","ELEMENT_SET_NO":"999","SEMIMAJOR_AXIS":"6860.664","PERIOD":"94.256"},{"DECAY_DATE":null,"SITE":"AFETR","GP_ID":"199429756","REF_FRAME":"TEME","REV_AT_EPOCH":"365","MEAN_MOTION_DOT":"-0.00660239","ARG_OF_PERICENTER":"73.4134","OBJECT_ID":"2021-115AK","OBJECT_TYPE":"PAYLOAD","APOAPSIS":"482.053","TLE_LINE1":"1 49757U 21115AK  22081.91668981 -.00660239  00000-0 -25530-1 0  9997","CLASSIFICATION_TYPE":"U","MEAN_MOTION_DDOT":"0.0000000000000","MEAN_ANOMALY":"54.7635","EPHEMERIS_TYPE":"0","COUNTRY_CODE":"US","MEAN_ELEMENT_THEORY":"SGP4","RA_OF_ASC_NODE":"159.4539","TLE_LINE2":"2 49757  53.2174 159.4539 0001284  73.4134  54.7635 15.28207798  3652","MEAN_MOTION":"15.28207798","FILE":"3370190","INCLINATION":"53.2174","ELEMENT_SET_NO":"999","SEMIMAJOR_AXIS":"6859.307","PERIOD":"94.228","ECCENTRICITY":"0.00012840","OBJECT_NAME":"STARLINK-3197","BSTAR":"-0.02553000000000","LAUNCH_DATE":"2021-12-02","TIME_SYSTEM":"UTC","RCS_SIZE":"LARGE","NORAD_CAT_ID":"49757","PERIAPSIS":"480.291","CENTER_NAME":"EARTH","EPOCH":"2022-03-22T22:00:01.999584"},{"RA_OF_ASC_NODE":"159.4508","TLE_LINE2":"2 49758  53.2174 159.4508 0001312  63.0328  29.8430 15.27288539  3658","MEAN_MOTION":"15.27288539","FILE":"3370190","ELEMENT_SET_NO":"999","INCLINATION":"53.2174","SEMIMAJOR_AXIS":"6862.059","PERIOD":"94.285","OBJECT_NAME":"STARLINK-3194","ECCENTRICITY":"0.00013120","BSTAR":"-0.02624800000000","LAUNCH_DATE":"2021-12-02","TIME_SYSTEM":"UTC","RCS_SIZE":"LARGE","NORAD_CAT_ID":"49758","PERIAPSIS":"483.024","CENTER_NAME":"EARTH","EPOCH":"2022-03-22T22:00:01.999584","DECAY_DATE":null,"SITE":"AFETR","GP_ID":"199430505","REV_AT_EPOCH":"365","REF_FRAME":"TEME","ARG_OF_PERICENTER":"63.0328","MEAN_MOTION_DOT":"-0.00659965","OBJECT_ID":"2021-115AL","OBJECT_TYPE":"PAYLOAD","APOAPSIS":"484.824","CLASSIFICATION_TYPE":"U","TLE_LINE1":"1 49758U 21115AL  22081.91668981 -.00659965  00000-0 -26248-1 0  9999","MEAN_MOTION_DDOT":"0.0000000000000","MEAN_ANOMALY":"29.8430","EPHEMERIS_TYPE":"0","COUNTRY_CODE":"US","MEAN_ELEMENT_THEORY":"SGP4"},{"FILE":"3370190","MEAN_MOTION":"15.27987554","TLE_LINE2":"2 49759  53.2174 159.4546 0001315  66.5810  52.4974 15.27987554  3656","RA_OF_ASC_NODE":"159.4546","OBJECT_NAME":"STARLINK-3204","ECCENTRICITY":"0.00013150","PERIOD":"94.242","SEMIMAJOR_AXIS":"6859.966","ELEMENT_SET_NO":"999","INCLINATION":"53.2174","NORAD_CAT_ID":"49759","RCS_SIZE":"LARGE","TIME_SYSTEM":"UTC","LAUNCH_DATE":"2021-12-02","BSTAR":"-0.02569200000000","EPOCH":"2022-03-22T22:00:01.999584","CENTER_NAME":"EARTH","PERIAPSIS":"480.929","GP_ID":"199431256","SITE":"AFETR","DECAY_DATE":null,"OBJECT_ID":"2021-115AM","ARG_OF_PERICENTER":"66.5810","MEAN_MOTION_DOT":"-0.00659971","REF_FRAME":"TEME","REV_AT_EPOCH":"365","MEAN_MOTION_DDOT":"0.0000000000000","MEAN_ANOMALY":"52.4974","TLE_LINE1":"1 49759U 21115AM  22081.91668981 -.00659971  00000-0 -25692-1 0  9999","CLASSIFICATION_TYPE":"U","APOAPSIS":"482.733","OBJECT_TYPE":"PAYLOAD","MEAN_ELEMENT_THEORY":"SGP4","COUNTRY_CODE":"US","EPHEMERIS_TYPE":"0"},{"NORAD_CAT_ID":"49760","TIME_SYSTEM":"UTC","RCS_SIZE":"LARGE","BSTAR":"-0.02330600000000","LAUNCH_DATE":"2021-12-02","CENTER_NAME":"EARTH","EPOCH":"2022-03-22T22:00:01.999584","PERIAPSIS":"471.101","MEAN_MOTION":"15.31249530","FILE":"3370190","RA_OF_ASC_NODE":"159.4632","TLE_LINE2":"2 49760  53.2175 159.4632 0001437  63.9818 140.8222 15.31249530  3657","OBJECT_NAME":"STARLINK-3199","ECCENTRICITY":"0.00014370","PERIOD":"94.041","INCLINATION":"53.2175","ELEMENT_SET_NO":"999","SEMIMAJOR_AXIS":"6850.220","CLASSIFICATION_TYPE":"U","TLE_LINE1":"1 49760U 21115AN  22081.91668981 -.00662265  00000-0 -23306-1 0  9991","MEAN_ANOMALY":"140.8222","MEAN_MOTION_DDOT":"0.0000000000000","APOAPSIS":"473.070","OBJECT_TYPE":"PAYLOAD","MEAN_ELEMENT_THEORY":"SGP4","COUNTRY_CODE":"US","EPHEMERIS_TYPE":"0","GP_ID":"199429507","SITE":"AFETR","DECAY_DATE":null,"MEAN_MOTION_DOT":"-0.00662265","ARG_OF_PERICENTER":"63.9818","OBJECT_ID":"2021-115AN","REF_FRAME":"TEME","REV_AT_EPOCH":"365"},{"DECAY_DATE":null,"SITE":"AFETR","GP_ID":"199430257","REF_FRAME":"TEME","REV_AT_EPOCH":"365","MEAN_MOTION_DOT":"-0.00659831","ARG_OF_PERICENTER":"66.4858","OBJECT_ID":"2021-115AP","OBJECT_TYPE":"PAYLOAD","APOAPSIS":"484.110","CLASSIFICATION_TYPE":"U","TLE_LINE1":"1 49761U 21115AP  22081.91668981 -.00659831  00000-0 -26056-1 0  9992","MEAN_ANOMALY":"35.2636","MEAN_MOTION_DDOT":"0.0000000000000","EPHEMERIS_TYPE":"0","COUNTRY_CODE":"US","MEAN_ELEMENT_THEORY":"SGP4","RA_OF_ASC_NODE":"159.4524","TLE_LINE2":"2 49761  53.2174 159.4524 0001288  66.4858  35.2636 15.27521492  3654","MEAN_MOTION":"15.27521492","FILE":"3370190","ELEMENT_SET_NO":"999","INCLINATION":"53.2174","SEMIMAJOR_AXIS":"6861.361","PERIOD":"94.270","ECCENTRICITY":"0.00012880","OBJECT_NAME":"STARLINK-3203","BSTAR":"-0.02605600000000","LAUNCH_DATE":"2021-12-02","TIME_SYSTEM":"UTC","RCS_SIZE":"LARGE","NORAD_CAT_ID":"49761","PERIAPSIS":"482.343","CENTER_NAME":"EARTH","EPOCH":"2022-03-22T22:00:01.999584"},{"BSTAR":"-0.02363400000000","LAUNCH_DATE":"2021-12-02","TIME_SYSTEM":"UTC","RCS_SIZE":"LARGE","NORAD_CAT_ID":"49762","PERIAPSIS":"472.534","CENTER_NAME":"EARTH","EPOCH":"2022-03-22T22:00:01.999584","RA_OF_ASC_NODE":"159.4689","TLE_LINE2":"2 49762  53.2175 159.4689 0001374  70.7309 120.6478 15.30783366  3650","MEAN_MOTION":"15.30783366","FILE":"3370190","ELEMENT_SET_NO":"999","INCLINATION":"53.2175","SEMIMAJOR_AXIS":"6851.611","PERIOD":"94.069","OBJECT_NAME":"STARLINK-3195","ECCENTRICITY":"0.00013740","OBJECT_TYPE":"PAYLOAD","APOAPSIS":"474.417","CLASSIFICATION_TYPE":"U","TLE_LINE1":"1 49762U 21115AQ  22081.91668981 -.00661882  00000-0 -23634-1 0  9991","MEAN_ANOMALY":"120.6478","MEAN_MOTION_DDOT":"0.0000000000000","EPHEMERIS_TYPE":"0","COUNTRY_CODE":"US","MEAN_ELEMENT_THEORY":"SGP4","DECAY_DATE":null,"SITE":"AFETR","GP_ID":"199431006","REF_FRAME":"TEME","REV_AT_EPOCH":"365","MEAN_MOTION_DOT":"-0.00661882","ARG_OF_PERICENTER":"70.7309","OBJECT_ID":"2021-115AQ"},{"NORAD_CAT_ID":"49763","TIME_SYSTEM":"UTC","RCS_SIZE":"LARGE","BSTAR":"-0.02314500000000","LAUNCH_DATE":"2021-12-02","CENTER_NAME":"EARTH","EPOCH":"2022-03-22T22:00:01.999584","PERIAPSIS":"470.391","MEAN_MOTION":"15.31482613","FILE":"3370190","RA_OF_ASC_NODE":"159.4599","TLE_LINE2":"2 49763  53.2175 159.4599 0001458  61.5311 149.7764 15.31482613  3657","OBJECT_NAME":"STARLINK-3198","ECCENTRICITY":"0.00014580","PERIOD":"94.027","INCLINATION":"53.2175","ELEMENT_SET_NO":"999","SEMIMAJOR_AXIS":"6849.525","CLASSIFICATION_TYPE":"U","TLE_LINE1":"1 49763U 21115AR  22081.91668981 -.00662499  00000-0 -23145-1 0  9994","MEAN_ANOMALY":"149.7764","MEAN_MOTION_DDOT":"0.0000000000000","APOAPSIS":"472.389","OBJECT_TYPE":"PAYLOAD","MEAN_ELEMENT_THEORY":"SGP4","COUNTRY_CODE":"US","EPHEMERIS_TYPE":"0","GP_ID":"199430756","SITE":"AFETR","DECAY_DATE":null,"MEAN_MOTION_DOT":"-0.00662499","ARG_OF_PERICENTER":"61.5311","OBJECT_ID":"2021-115AR","REV_AT_EPOCH":"365","REF_FRAME":"TEME"}];
